HIMAWARI-8              
1 40267U 14060A   24180.92357042 -.00000272  00000+0  00000+0 0  9997
2 40267   0.0436 202.2472 0001253 283.9532 264.4269  1.00273122 35555
